[{"OBJECT_NAME":"STARLINK-4139","OBJECT_ID":"2022-062BB","EPOCH":"2026-03-09T23:31:21.107424","MEAN_MOTION":15.08843823,"ECCENTRICITY":0.00014114,"INCLINATION":53.2194,"RA_OF_ASC_NODE":12.8116,"ARG_OF_PERICENTER":101.5826,"MEAN_ANOMALY":258.5324,"EPHEMERIS_TYPE":0,"CLASSIFICATION_TYPE":"U","NORAD_CAT_ID":52879,"ELEMENT_SET_NO":999,"REV_AT_EPOCH":20611,"BSTAR":5.3246769e-5,"MEAN_MOTION_DOT":5.6e-6,"MEAN_MOTION_DDOT":0},{"OBJECT_NAME":"CZ-4B DEB","OBJECT_ID":"2008-053G","EPOCH":"2026-03-08T12:59:24.951264","MEAN_MOTION":14.89391484,"ECCENTRICITY":0.01030319,"INCLINATION":97.6151,"RA_OF_ASC_NODE":98.188,"ARG_OF_PERICENTER":41.7816,"MEAN_ANOMALY":319.121,"EPHEMERIS_TYPE":0,"CLASSIFICATION_TYPE":"U","NORAD_CAT_ID":35571,"ELEMENT_SET_NO":999,"REV_AT_EPOCH":91755,"BSTAR":0.0016985241,"MEAN_MOTION_DOT":0.00017804,"MEAN_MOTION_DDOT":0}]
